ONEWEB-0055             
1 45443U 20020V   21238.66644149  .00000570  00000-0  15711-2 0  9999
2 45443  87.8957  10.0473 0001676  96.3213 263.8106 13.11416859 72526
ONEWEB-0093             
1 45444U 20020W   21239.40543605 -.00000180  00000-0 -54262-3 0  9992
2 45444  87.8950   9.9504 0001781  97.6857 262.4473 13.11418699 72691
ONEWEB-0029             
1 45445U 20020X   21238.66425988  .00000165  00000-0  43074-3 0  9993
2 45445  87.8950  10.0766 0001890  84.5777 275.5566 13.11418599 72565
ONEWEB-0068             
1 45446U 20020Y   21238.63374169 -.00000461  00000-0 -13377-2 0  9998
2 45446  87.8949  10.1015 0001441  91.4261 268.7032 13.11418261 72501
ONEWEB-0046             
1 45447U 20020Z   21239.39234393 -.00000449  00000-0 -13022-2 0  9990
2 45447  87.8949   9.9565 0002140  97.5136 262.6235 13.11413163 72620
ONEWEB-0063             
1 45448U 20020AA  21239.42288278  .00000464  00000-0  12720-2 0  9995
2 45448  87.8945   9.9528 0002194  97.3296 262.8081 13.11417203 72709
ONEWEB-0019             
1 45449U 20020AB  21238.63592687 -.00000283  00000-0 -83560-3 0  9992
2 45449  87.8952  10.0828 0001762 102.1452 257.9873 13.11417506 72444
ONEWEB-0094             
1 45450U 20020AC  21238.59801812  .00000005  00000-0 -20071-4 0  9992
2 45450  87.9170 354.8958 0001644 100.8348 259.2969 13.17650870 75117
ONEWEB-0087             
1 45451U 20020AD  21239.35528879  .00000574  00000-0  15846-2 0  9999
2 45451  87.8956   9.9675 0001503  75.9282 284.2013 13.11416475 72598
ONEWEB-0082             
1 45452U 20020AE  21239.43378405  .00000560  00000-0  15430-2 0  9991
2 45452  87.8947   9.9084 0001470  84.1320 275.9976 13.11416231 72697
ONEWEB-0050             
1 45453U 20020AF  21238.73215317  .00000503  00000-0  43471-4 0  9991
2 45453  87.5471 333.5458 0025239 197.4593 162.5773 14.94689145 78248
ONEWEB-0034             
1 45454U 20020AG  21238.61194999 -.00000207  00000-0 -61921-3 0  9993
2 45454  87.8943  10.0958 0001913  92.3623 267.7724 13.11414851 72491
ONEWEB-0060             
1 45455U 20020AH  21239.38361557 -.00000299  00000-0 -87896-3 0  9995
2 45455  87.8948   9.9414 0001822  94.5546 265.5790 13.11415684 72560
ONEWEB-0086             
1 45456U 20020AJ  21239.40323651 -.00000228  00000-0 -67857-3 0  9999
2 45456  87.8950   9.9353 0001546  89.9602 270.1703 13.11418476 72614
ONEWEB-0088             
1 45457U 20020AK  21238.61411023 -.00000296  00000-0 -87068-3 0  9994
2 45457  87.8942  10.1170 0001935  91.7028 268.4322 13.11414204 72445
ONEWEB-0102             
1 47258U 20100A   21238.77556023 -.00000387  00000-0 -11123-2 0  9990
2 47258  87.8952 339.7149 0001529 101.2603 258.8698 13.12440099 34470
ONEWEB-0109             
1 47259U 20100B   21238.55744157  .00000000  00000-0 -35220-4 0  9991
2 47259  87.8926 339.5979 0001591 111.3827 248.7471 13.12442316 34279
ONEWEB-0110             
1 47260U 20100C   21239.34097492 -.00000208  00000-0 -61333-3 0  9998
2 47260  87.8972 339.5257 0001538 104.8692 255.2607 13.12444167 34549
ONEWEB-0111             
1 47261U 20100D   21239.37274330 -.00000168  00000-0 -50244-3 0  9994
2 47261  87.8974 339.5460 0001611  97.3331 262.7980 13.12444966 34382
ONEWEB-0114             
1 47262U 20100E   21238.64214429  .00000198  00000-0  51622-3 0  9999
2 47262  87.8900 339.5542 0001792 110.5358 249.5962 13.12443075 34248
ONEWEB-0117             
1 47263U 20100F   21239.32191395 -.00000499  00000-0 -14232-2 0  9993
2 47263  87.8927 339.5257 0001690 103.3693 256.7624 13.12443103 34348
ONEWEB-0118             
1 47264U 20100G   21238.73958008  .00000383  00000-0  10292-2 0  9992
2 47264  87.8959 339.6592 0001862 107.5292 252.6040 13.12445038 34468
ONEWEB-0119             
1 47265U 20100H   21238.76919029 -.00000406  00000-0 -11633-2 0  9994
2 47265  87.8949 339.7241 0001666 100.8455 259.2861 13.12439717 34448
ONEWEB-0120             
1 47266U 20100J   21238.72261694  .00000305  00000-0  81226-3 0  9991
2 47266  87.9025 339.6136 0001698 111.0622 249.0688 13.12443351 34467
ONEWEB-0121             
1 47267U 20100K   21238.78403507 -.00000220  00000-0 -64679-3 0  9990
2 47267  87.9032 339.6535 0001606  94.6911 265.4401 13.12442595 34380
ONEWEB-0122             
1 47268U 20100L   21239.31129749 -.00001159  00000-0 -32572-2 0  9992
2 47268  87.8941 339.5161 0002128  95.5250 264.6121 13.12440948 34367
ONEWEB-0123             
1 47269U 20100M   21239.30499251 -.00000367  00000-0 -10556-2 0  9998
2 47269  87.8965 339.5778 0001824 103.6421 256.4911 13.12445641 34508
ONEWEB-0124             
1 47270U 20100N   21238.75651176 -.00000103  00000-0 -32169-3 0  9997
2 47270  87.8934 339.6398 0001750  98.0618 262.0709 13.12440533 34310
ONEWEB-0125             
1 47271U 20100P   21239.26900396  .00000489  00000-0  13232-2 0  9990
2 47271  87.9010 339.5704 0001876  98.8154 261.3187 13.12444250 34445
ONEWEB-0126             
1 47272U 20100Q   21238.76074286 -.00000229  00000-0 -67209-3 0  9993
2 47272  87.8964 339.7323 0001575 108.7722 251.3577 13.12440831 34443
ONEWEB-0127             
1 47273U 20100R   21238.72473397  .00000333  00000-0  89163-3 0  9993
2 47273  87.8941 339.6510 0001731 110.6777 249.4537 13.12443129 34461
ONEWEB-0128             
1 47274U 20100S   21238.74381739  .00000397  00000-0  10674-2 0  9994
2 47274  87.8962 339.6469 0001532  99.1794 260.9508 13.12441092 34482
ONEWEB-0129             
1 47275U 20100T   21238.72685407  .00000339  00000-0  90622-3 0  9990
2 47275  87.8975 339.5799 0002654 156.9234 203.2014 13.12443199 34414
ONEWEB-0130             
1 47276U 20100U   21239.28592267  .00000194  00000-0  50324-3 0  9998
2 47276  87.8997 339.5355 0001293 105.4909 254.6362 13.12441856 34451
ONEWEB-0131             
1 47277U 20100V   21239.28170044  .00000250  00000-0  65893-3 0  9994
2 47277  87.8998 339.4838 0001924  97.2420 262.8927 13.12441715 34491
ONEWEB-0132             
1 47278U 20100W   21238.78189875 -.00000297  00000-0 -86043-3 0  9994
2 47278  87.8958 339.7197 0001979 105.9773 254.1573 13.12445950 34325
ONEWEB-0133             
1 47279U 20100X   21239.33040913  .00000133  00000-0  33320-3 0  9993
2 47279  87.8982 339.4875 0001631 107.1379 252.9928 13.12443167 34557
ONEWEB-0134             
1 47280U 20100Y   21239.37487602 -.00000285  00000-0 -82787-3 0  9990
2 47280  87.8950 339.5290 0001791  91.6643 268.4691 13.12440953 34531
ONEWEB-0135             
1 47281U 20100Z   21239.34309141  .00000446  00000-0  12038-2 0  9997
2 47281  87.8956 339.5198 0001567 109.1560 250.9738 13.12446612 34557
ONEWEB-0136             
1 47282U 20100AA  21238.75439379 -.00000048  00000-0 -16978-3 0  9997
2 47282  87.8978 339.5858 0001312 102.8873 257.2402 13.12440447 34402
ONEWEB-0137             
1 47283U 20100AB  21239.32613035 -.00000033  00000-0 -12644-3 0  9995
2 47283  87.8938 339.6042 0002004 111.8802 248.2540 13.12450101 34384
ONEWEB-0138             
1 47284U 20100AC  21238.76709290 -.00000377  00000-0 -10843-2 0  9991
2 47284  87.8942 339.7010 0001625 107.5447 252.5859 13.12443111 34396
ONEWEB-0139             
1 47285U 20100AD  21238.73744317  .00000374  00000-0  10043-2 0  9995
2 47285  87.8996 339.7077 0001583  98.9535 261.1773 13.12441416 34468
ONEWEB-0140             
1 47286U 20100AE  21239.29227459  .00000013  00000-0  50217-6 0  9992
2 47286  87.8971 339.5737 0001406 105.5499 254.5785 13.12444475 34491
ONEWEB-0141             
1 47287U 20100AF  21238.75014513  .00000090  00000-0  21417-3 0  9990
2 47287  87.8947 339.6928 0001664 106.4510 253.6801 13.12440222 34415
ONEWEB-0142             
1 47288U 20100AG  21238.54471868 -.00000356  00000-0 -10242-2 0  9998
2 47288  87.8975 339.7981 0002106 106.6525 253.4835 13.12442087 34389
ONEWEB-0143             
1 47289U 20100AH  21238.72896384  .00000382  00000-0  10264-2 0  9994
2 47289  87.8995 339.6229 0001688 103.2661 256.8656 13.12446129 34383
ONEWEB-0144             
1 47290U 20100AJ  21238.77980216 -.00000271  00000-0 -78774-3 0  9999
2 47290  87.8921 339.5343 0001644  93.9579 266.1738 13.12442083 34318
ONEWEB-0145             
1 47291U 20100AK  21239.27957393  .00000330  00000-0  88084-3 0  9995
2 47291  87.8970 339.5560 0001578 106.8853 253.2448 13.12444165 34575
ONEWEB-0146             
1 47292U 20100AL  21238.74169536  .00000319  00000-0  85097-3 0  9999
2 47292  87.8958 339.7006 0001581 103.9715 256.1589 13.12441700 34411
ONEWEB-0147             
1 47293U 20100AM  21238.56168154  .00000113  00000-0  27821-3 0  9998
2 47293  87.8974 339.7186 0001024 134.7771 225.3441 13.12445975 34283
ONEWEB-0115             
1 48042U 21025A   21239.00001157  .00026778  00000-0  73099-1 0  9998
2 48042  87.8914 309.0302 0002091  88.2248  67.3372 13.13452646  3295
ONEWEB-0152             
1 48043U 21025B   21239.00001157  .00025446  00000-0  69471-1 0  9999
2 48043  87.8878 309.0133 0001807  95.8140 359.7577 13.13452031  3299
ONEWEB-0153             
1 48044U 21025C   21239.00001157  .00026189  00000-0  71484-1 0  9992
2 48044  87.9031 309.1391 0002523  97.7110 107.7965 13.13462726  3275
ONEWEB-0154             
1 48045U 21025D   21239.00001157  .00026067  00000-0  71155-1 0  9993
2 48045  87.8873 309.0489 0002307 110.0419 105.5141 13.13459131  3286
ONEWEB-0116             
1 48046U 21025E   21238.91670139 -.00021803  00000-0 -59877-1 0  9997
2 48046  87.8882 309.0482 0002284  87.4469 254.4986 13.13475076  3272
ONEWEB-0150             
1 48047U 21025F   21238.91670139 -.00020995  00000-0 -57652-1 0  9998
2 48047  87.8871 309.1143 0002584 106.8414   5.0509 13.13475912  3286
ONEWEB-0107             
1 48048U 21025G   21238.91670139 -.00020908  00000-0 -57413-1 0  9998
2 48048  87.8897 309.0441 0001937 118.3788 343.4969 13.13476823  3289
ONEWEB-0101             
1 48049U 21025H   21238.91670139 -.00021899  00000-0 -60134-1 0  9993
2 48049  87.8906 309.1436 0002151 102.5732 159.2371 13.13482837  3270
